LEMUR-2-HUBBLE-4        
1 64565U 25135AP  26198.88776650  .00000520  00000+0  54487-4 0  9993
2 64565  97.7722 312.4391 0002869 155.4707 204.6649 14.93690089 58451
LEMUR-2-SEJONG-2        
1 64586U 25135BL  26198.85525084  .00002381  00000+0  21243-3 0  9996
2 64586  97.7709 313.6739 0004130 205.9859 154.1156 14.96924324 58536
LEMUR-2-HUBBLE-5        
1 64840U 25135BT  26198.89565194  .00000379  00000+0  40666-4 0  9995
2 64840  97.7742 313.1189 0004500 224.3366 135.7494 14.94217209 58499
LEMUR-2-KARENDARRELL    
1 64841U 25135BU  26198.86387841  .00004039  00000+0  32469-3 0  9992
2 64841  97.7722 315.0336 0012690  96.6097 263.6572 15.00521478 58619
LEMUR-2-LUCILLE-ROSE    
1 65403U 25135BV  26198.83735617  .00003412  00000+0  27499-3 0  9993
2 65403  97.7708 315.0422 0015191 181.1612 178.9579 15.00506994 53230
LEMUR-2-AFFIE-WAUWIE    
1 66295U 25248C   26198.33032588  .00012925  00000+0  46965-3 0  9998
2 66295  45.3906 311.5299 0008948 263.2179  96.7692 15.28312820 39201
OTTER SDM               
1 66678U 25276N   26198.46717971  .00003113  00000+0  14739-3 0  9997
2 66678  97.4199 271.4454 0004416 243.2607 116.8176 15.20071543 35017
LEMUR-2-STAS-GORBUK     
1 66686U 25276W   26198.95012762  .00002895  00000+0  13889-3 0  9997
2 66686  97.4234 271.9720 0003760 234.4575 125.6310 15.19674346 35087
LEMUR-2-TEODOR          
1 66768U 25276DG  26198.63700110  .00002797  00000+0  12795-3 0  9990
2 66768  97.4140 271.9387 0002193  86.0179 274.1307 15.21351636 35075
LEMUR-2-LAILA           
1 66776U 25276DQ  26198.67220324  .00002841  00000+0  12905-3 0  9990
2 66776  97.4162 272.1136 0002893  90.9081 269.2486 15.21578039 35088
LEMUR-2-CELIJO-SB-PK    
1 66781U 25276DW  26198.91939151  .00003145  00000+0  25543-3 0  9998
2 66781  97.5186 268.6824 0006831  57.6797 302.5088 15.00301688 27233
LEMUR-2-FINNIAN         
1 66782U 25276DX  26198.42230088  .00001385  00000+0  11408-3 0  9997
2 66782  97.5344 268.4746 0007425 350.8943   9.2145 15.00631674 24538
LEMUR-2-STARLIGHT       
1 66783U 25276DY  26198.93866685  .00003810  00000+0  31539-3 0  9994
2 66783  97.5232 268.5271 0014711  39.1028 321.1256 14.99375847 34800
LEMUR-2-TARTIFLETTE     
1 66784U 25276DZ  26198.93709752  .00003446  00000+0  28586-3 0  9999
2 66784  97.5232 268.5334 0013875  47.6043 312.6352 14.99358783 34804
LEMUR-2-VUKASIN         
1 66785U 25276EA  26198.90525825  .00002399  00000+0  19464-3 0  9995
2 66785  97.5213 268.8658 0002638  46.2616 313.8826 15.00559921 34755
LEMUR-2-HOTSPUR-TOM     
1 66786U 25276EB  26198.59797479  .00002767  00000+0  23113-3 0  9992
2 66786  97.5214 268.1791 0013711  40.2029 320.0206 14.99254921 34687
