{"fetched_at":"2026-07-18T06:27:50.593Z","source":"https://celestrak.org/NORAD/elements/gp.php?GROUP=spire&FORMAT=JSON","constellation":"spire","records":[{"OBJECT_NAME":"LEMUR-2-HUBBLE-4","OBJECT_ID":"2025-135AP","EPOCH":"2026-07-17T21:18:23.025600","CLASSIFICATION_TYPE":"U","MEAN_MOTION":14.93690089,"ECCENTRICITY":0.0002869,"INCLINATION":97.7722,"RA_OF_ASC_NODE":312.4391,"ARG_OF_PERICENTER":155.4707,"MEAN_ANOMALY":204.6649,"EPHEMERIS_TYPE":0,"NORAD_CAT_ID":64565,"ELEMENT_SET_NO":999,"REV_AT_EPOCH":5845,"BSTAR":0.000054487333,"MEAN_MOTION_DOT":0.0000052,"MEAN_MOTION_DDOT":0},{"OBJECT_NAME":"LEMUR-2-SEJONG-2","OBJECT_ID":"2025-135BL","EPOCH":"2026-07-17T20:31:33.672576","CLASSIFICATION_TYPE":"U","MEAN_MOTION":14.96924324,"ECCENTRICITY":0.00041309,"INCLINATION":97.7709,"RA_OF_ASC_NODE":313.6739,"ARG_OF_PERICENTER":205.9859,"MEAN_ANOMALY":154.1156,"EPHEMERIS_TYPE":0,"NORAD_CAT_ID":64586,"ELEMENT_SET_NO":999,"REV_AT_EPOCH":5853,"BSTAR":0.00021242966,"MEAN_MOTION_DOT":0.00002381,"MEAN_MOTION_DDOT":0},{"OBJECT_NAME":"LEMUR-2-HUBBLE-5","OBJECT_ID":"2025-135BT","EPOCH":"2026-07-17T21:29:44.327616","CLASSIFICATION_TYPE":"U","MEAN_MOTION":14.94217209,"ECCENTRICITY":0.00045003,"INCLINATION":97.7742,"RA_OF_ASC_NODE":313.1189,"ARG_OF_PERICENTER":224.3366,"MEAN_ANOMALY":135.7494,"EPHEMERIS_TYPE":0,"NORAD_CAT_ID":64840,"ELEMENT_SET_NO":999,"REV_AT_EPOCH":5849,"BSTAR":0.000040666222,"MEAN_MOTION_DOT":0.00000379,"MEAN_MOTION_DDOT":0},{"OBJECT_NAME":"LEMUR-2-KARENDARRELL","OBJECT_ID":"2025-135BU","EPOCH":"2026-07-17T20:43:59.094624","CLASSIFICATION_TYPE":"U","MEAN_MOTION":15.00521478,"ECCENTRICITY":0.00126903,"INCLINATION":97.7722,"RA_OF_ASC_NODE":315.0336,"ARG_OF_PERICENTER":96.6097,"MEAN_ANOMALY":263.6572,"EPHEMERIS_TYPE":0,"NORAD_CAT_ID":64841,"ELEMENT_SET_NO":999,"REV_AT_EPOCH":5861,"BSTAR":0.0003246888,"MEAN_MOTION_DOT":0.00004039,"MEAN_MOTION_DDOT":0},{"OBJECT_NAME":"LEMUR-2-LUCILLE-ROSE","OBJECT_ID":"2025-135BV","EPOCH":"2026-07-17T20:05:47.573088","CLASSIFICATION_TYPE":"U","MEAN_MOTION":15.00506994,"ECCENTRICITY":0.00151917,"INCLINATION":97.7708,"RA_OF_ASC_NODE":315.0422,"ARG_OF_PERICENTER":181.1612,"MEAN_ANOMALY":178.9579,"EPHEMERIS_TYPE":0,"NORAD_CAT_ID":65403,"ELEMENT_SET_NO":999,"REV_AT_EPOCH":5323,"BSTAR":0.00027499264,"MEAN_MOTION_DOT":0.00003412,"MEAN_MOTION_DDOT":0},{"OBJECT_NAME":"LEMUR-2-AFFIE-WAUWIE","OBJECT_ID":"2025-248C","EPOCH":"2026-07-17T07:55:40.156032","CLASSIFICATION_TYPE":"U","MEAN_MOTION":15.2831282,"ECCENTRICITY":0.0008948,"INCLINATION":45.3906,"RA_OF_ASC_NODE":311.5299,"ARG_OF_PERICENTER":263.2179,"MEAN_ANOMALY":96.7692,"EPHEMERIS_TYPE":0,"NORAD_CAT_ID":66295,"ELEMENT_SET_NO":999,"REV_AT_EPOCH":3920,"BSTAR":0.00046965,"MEAN_MOTION_DOT":0.00012925,"MEAN_MOTION_DDOT":0},{"OBJECT_NAME":"OTTER SDM","OBJECT_ID":"2025-276N","EPOCH":"2026-07-17T11:12:44.326944","CLASSIFICATION_TYPE":"U","MEAN_MOTION":15.20071543,"ECCENTRICITY":0.0004416,"INCLINATION":97.4199,"RA_OF_ASC_NODE":271.4454,"ARG_OF_PERICENTER":243.2607,"MEAN_ANOMALY":116.8176,"EPHEMERIS_TYPE":0,"NORAD_CAT_ID":66678,"ELEMENT_SET_NO":999,"REV_AT_EPOCH":3501,"BSTAR":0.00014739,"MEAN_MOTION_DOT":0.00003113,"MEAN_MOTION_DDOT":0},{"OBJECT_NAME":"LEMUR-2-STAS-GORBUK","OBJECT_ID":"2025-276W","EPOCH":"2026-07-17T22:48:11.026368","CLASSIFICATION_TYPE":"U","MEAN_MOTION":15.19674346,"ECCENTRICITY":0.00037604,"INCLINATION":97.4234,"RA_OF_ASC_NODE":271.972,"ARG_OF_PERICENTER":234.4575,"MEAN_ANOMALY":125.631,"EPHEMERIS_TYPE":0,"NORAD_CAT_ID":66686,"ELEMENT_SET_NO":999,"REV_AT_EPOCH":3508,"BSTAR":0.00013888799,"MEAN_MOTION_DOT":0.00002895,"MEAN_MOTION_DDOT":0},{"OBJECT_NAME":"LEMUR-2-TEODOR","OBJECT_ID":"2025-276DG","EPOCH":"2026-07-17T15:17:16.895040","CLASSIFICATION_TYPE":"U","MEAN_MOTION":15.21351636,"ECCENTRICITY":0.00021933,"INCLINATION":97.414,"RA_OF_ASC_NODE":271.9387,"ARG_OF_PERICENTER":86.0179,"MEAN_ANOMALY":274.1307,"EPHEMERIS_TYPE":0,"NORAD_CAT_ID":66768,"ELEMENT_SET_NO":999,"REV_AT_EPOCH":3507,"BSTAR":0.0001279462,"MEAN_MOTION_DOT":0.00002797,"MEAN_MOTION_DDOT":0},{"OBJECT_NAME":"LEMUR-2-LAILA","OBJECT_ID":"2025-276DQ","EPOCH":"2026-07-17T16:07:58.359936","CLASSIFICATION_TYPE":"U","MEAN_MOTION":15.21578039,"ECCENTRICITY":0.00028936,"INCLINATION":97.4162,"RA_OF_ASC_NODE":272.1136,"ARG_OF_PERICENTER":90.9081,"MEAN_ANOMALY":269.2486,"EPHEMERIS_TYPE":0,"NORAD_CAT_ID":66776,"ELEMENT_SET_NO":999,"REV_AT_EPOCH":3508,"BSTAR":0.00012905,"MEAN_MOTION_DOT":0.00002841,"MEAN_MOTION_DDOT":0},{"OBJECT_NAME":"LEMUR-2-CELIJO-SB-PK","OBJECT_ID":"2025-276DW","EPOCH":"2026-07-17T22:03:55.426464","CLASSIFICATION_TYPE":"U","MEAN_MOTION":15.00301688,"ECCENTRICITY":0.00068312,"INCLINATION":97.5186,"RA_OF_ASC_NODE":268.6824,"ARG_OF_PERICENTER":57.6797,"MEAN_ANOMALY":302.5088,"EPHEMERIS_TYPE":0,"NORAD_CAT_ID":66781,"ELEMENT_SET_NO":999,"REV_AT_EPOCH":2723,"BSTAR":0.0002554326,"MEAN_MOTION_DOT":0.00003145,"MEAN_MOTION_DDOT":0},{"OBJECT_NAME":"LEMUR-2-FINNIAN","OBJECT_ID":"2025-276DX","EPOCH":"2026-07-17T10:08:06.796032","CLASSIFICATION_TYPE":"U","MEAN_MOTION":15.00631674,"ECCENTRICITY":0.0007425,"INCLINATION":97.5344,"RA_OF_ASC_NODE":268.4746,"ARG_OF_PERICENTER":350.8943,"MEAN_ANOMALY":9.2145,"EPHEMERIS_TYPE":0,"NORAD_CAT_ID":66782,"ELEMENT_SET_NO":999,"REV_AT_EPOCH":2453,"BSTAR":0.00011408,"MEAN_MOTION_DOT":0.00001385,"MEAN_MOTION_DDOT":0},{"OBJECT_NAME":"LEMUR-2-STARLIGHT","OBJECT_ID":"2025-276DY","EPOCH":"2026-07-17T22:31:40.815840","CLASSIFICATION_TYPE":"U","MEAN_MOTION":14.99375847,"ECCENTRICITY":0.00147119,"INCLINATION":97.5232,"RA_OF_ASC_NODE":268.5271,"ARG_OF_PERICENTER":39.1028,"MEAN_ANOMALY":321.1256,"EPHEMERIS_TYPE":0,"NORAD_CAT_ID":66783,"ELEMENT_SET_NO":999,"REV_AT_EPOCH":3480,"BSTAR":0.00031538556,"MEAN_MOTION_DOT":0.0000381,"MEAN_MOTION_DDOT":0},{"OBJECT_NAME":"LEMUR-2-TARTIFLETTE","OBJECT_ID":"2025-276DZ","EPOCH":"2026-07-17T22:29:25.225728","CLASSIFICATION_TYPE":"U","MEAN_MOTION":14.99358783,"ECCENTRICITY":0.00138756,"INCLINATION":97.5232,"RA_OF_ASC_NODE":268.5334,"ARG_OF_PERICENTER":47.6043,"MEAN_ANOMALY":312.6352,"EPHEMERIS_TYPE":0,"NORAD_CAT_ID":66784,"ELEMENT_SET_NO":999,"REV_AT_EPOCH":3480,"BSTAR":0.00028586465,"MEAN_MOTION_DOT":0.00003446,"MEAN_MOTION_DDOT":0},{"OBJECT_NAME":"LEMUR-2-VUKASIN","OBJECT_ID":"2025-276EA","EPOCH":"2026-07-17T21:43:34.312800","CLASSIFICATION_TYPE":"U","MEAN_MOTION":15.00559921,"ECCENTRICITY":0.00026383,"INCLINATION":97.5213,"RA_OF_ASC_NODE":268.8658,"ARG_OF_PERICENTER":46.2616,"MEAN_ANOMALY":313.8826,"EPHEMERIS_TYPE":0,"NORAD_CAT_ID":66785,"ELEMENT_SET_NO":999,"REV_AT_EPOCH":3475,"BSTAR":0.00019464169,"MEAN_MOTION_DOT":0.00002399,"MEAN_MOTION_DDOT":0},{"OBJECT_NAME":"LEMUR-2-HOTSPUR-TOM","OBJECT_ID":"2025-276EB","EPOCH":"2026-07-17T14:21:05.021856","CLASSIFICATION_TYPE":"U","MEAN_MOTION":14.99254921,"ECCENTRICITY":0.0013711,"INCLINATION":97.5214,"RA_OF_ASC_NODE":268.1791,"ARG_OF_PERICENTER":40.2029,"MEAN_ANOMALY":320.0206,"EPHEMERIS_TYPE":0,"NORAD_CAT_ID":66786,"ELEMENT_SET_NO":999,"REV_AT_EPOCH":3468,"BSTAR":0.00023113,"MEAN_MOTION_DOT":0.00002767,"MEAN_MOTION_DDOT":0}]}
